[{"OBJECT_NAME":"LEO EXPRESS 1","OBJECT_ID":"2023-174AX","EPOCH":"2026-03-09T18:25:46.135776","MEAN_MOTION":15.32756831,"ECCENTRICITY":0.00787345,"INCLINATION":97.5222,"RA_OF_ASC_NODE":152.4092,"ARG_OF_PERICENTER":115.921,"MEAN_ANOMALY":245.0174,"EPHEMERIS_TYPE":0,"CLASSIFICATION_TYPE":"U","NORAD_CAT_ID":58301,"ELEMENT_SET_NO":999,"REV_AT_EPOCH":12965,"BSTAR":0.00049741019,"MEAN_MOTION_DOT":0.00017303,"MEAN_MOTION_DDOT":0},{"OBJECT_NAME":"STARLINK-35591","OBJECT_ID":"2025-288AB","EPOCH":"2026-03-08T21:38:15.334368","MEAN_MOTION":15.27584601,"ECCENTRICITY":0.00015964,"INCLINATION":43.0012,"RA_OF_ASC_NODE":28.1737,"ARG_OF_PERICENTER":246.0772,"MEAN_ANOMALY":113.9913,"EPHEMERIS_TYPE":0,"CLASSIFICATION_TYPE":"U","NORAD_CAT_ID":66984,"ELEMENT_SET_NO":999,"REV_AT_EPOCH":1516,"BSTAR":0.0012807805,"MEAN_MOTION_DOT":0.00035155,"MEAN_MOTION_DDOT":0}]
