LEO EXPRESS 1           
1 58301U 23174AX  26068.76789509  .00017303  00000+0  49741-3 0  9998
2 58301  97.5222 152.4092 0078735 115.9210 245.0174 15.32756831129655
STARLINK-35591          
1 66984U 25288AB  26067.90156637  .00035155  00000+0  12808-2 0  9995
2 66984  43.0012  28.1737 0001596 246.0772 113.9913 15.27584601 15161
